NORAD_CAT_ID,EPOCH_UNIX,MEAN_MOTION,ECCENTRICITY,INCLINATION,RA_OF_ASC_NODE,ARG_OF_PERICENTER,MEAN_ANOMALY,APOAPSIS,PERIAPSIS,BSTAR,ORBITAL_PERIOD,SEMI_MAJOR_AXIS,ORBITAL_VELOCITY,PERIGEE_ALTITUDE,APOGEE_ALTITUDE
34056,1754672239,14.19387693,0.0130896,74.0594,301.5101,19.9515,98.1892,921.744,733.108,0.00083555,6087.131826357184,7205.561309625545,7.348184237641824,-5637.892,-5449.256
34058,1754734937,13.5591792,0.0378637,73.9341,21.2085,40.0986,350.5841,1331.845,769.288,0.00017912,6372.0671233550775,7428.701496485392,7.059570160146974,-5601.7119999999995,-5039.155
34059,1754681255,14.51836326,0.0019386,74.0371,63.6081,172.8047,200.0111,733.419,705.899,0.00046148,5951.084048023744,7097.79419051381,7.486896557580831,-5665.101,-5637.581
34061,1754680422,14.39990478,0.0021763,74.0395,136.1079,248.4302,186.1007,774.063,743.0,0.00025381,6000.039675262353,7136.666916540653,7.464663566153565,-5628.0,-5596.937
34062,1754741860,14.7355388,0.0085212,74.0308,23.208,134.1399,283.1992,709.634,589.862,0.0025989,5863.375691427042,7027.882541884628,7.474751421071151,-5781.138,-5661.366
34064,1754660643,14.41756397,0.0023878,74.0326,144.8142,246.8882,287.5437,769.73,735.676,0.00033671,5992.690594595641,7130.838215815991,7.466140347897073,-5635.324,-5601.27
34065,1754688140,14.37886326,0.0017665,74.036,129.9006,262.5527,172.8567,778.112,752.873,0.00012611,6008.819921137494,7143.627583554106,7.464076153809834,-5618.127,-5592.888
34070,1754647353,14.72331139,0.0024123,74.0043,3.4183,140.9293,250.5389,670.601,636.675,0.0014552,5868.245105423937,7031.773012315889,7.518470020770178,-5734.325,-5700.399
34071,1754701517,14.4858373,0.0007829,86.3407,72.4236,154.8308,205.3279,735.845,724.715,0.000471,5964.446390682574,7108.414967033501,7.489941401997073,-5646.285,-5635.155
34077,1754687136,14.61917839,0.0013484,86.3863,106.8108,88.9525,38.8187,696.517,677.464,0.0011054,5910.044853074674,7065.125231562817,7.508651248865394,-5693.536,-5674.483
34079,1754683810,14.79301837,0.0008533,86.3748,65.7029,64.6804,315.15,637.512,625.549,0.001238,5840.593031048876,7009.665762741226,7.54209009193538,-5745.451,-5733.488
34088,1754687425,14.83090636,0.0003942,86.3835,88.1327,329.8364,43.8546,622.346,616.829,0.0019096,5825.672275365913,6997.722444406076,7.552002821680044,-5754.171,-5748.654
34091,1754713860,14.71461072,0.0044228,86.3499,123.7208,20.7902,339.51,687.522,625.297,0.0030632,5871.714967122148,7034.544638871157,7.501888194828252,-5745.7029999999995,-5683.478
34097,1754745246,14.3345544,0.008639,86.196,56.5814,49.0788,311.7845,842.047,718.365,0.001104,6027.393498886858,7158.340895312126,7.4053166112678115,-5652.635,-5528.9529999999995
34114,1754710472,14.53495108,0.0052537,74.0594,281.1689,315.1072,72.6783,751.519,676.997,0.001447,5944.2924523417105,7092.392987237985,7.464964544771739,-5694.003,-5619.481
34115,1754679710,14.7674429,0.0031227,74.009,129.6815,340.2099,19.7861,661.536,617.707,0.0010159,5850.708249564316,7017.75670487172,7.520645444439143,-5753.293,-5709.464
34116,1754723558,14.51884025,0.0012752,74.0405,59.1599,167.0422,9.9201,728.555,710.453,0.00060216,5950.888536017882,7097.638732945998,7.4919468742505,-5660.5470000000005,-5642.445
34117,1754645462,14.39301028,0.0059441,74.0372,217.1019,324.6365,35.0852,803.245,718.376,0.000469,6002.913797682634,7138.9457922677975,7.435401370907621,-5652.624,-5567.755
34118,1754687241,14.8766052,0.0068251,73.9557,142.637,359.3447,62.2084,652.912,557.587,0.002224,5807.776629038996,6983.384417603164,7.511306558952656,-5813.4130000000005,-5718.088
34120,1754702889,13.98491426,0.0183158,73.9911,73.8864,289.0569,226.6759,1032.313,765.739,0.00019305,6178.085785418322,7277.160763568114,7.273752101491434,-5605.261,-5338.687
34121,1754675623,13.91226974,0.0238318,73.9946,312.9215,185.4506,336.6506,1098.367,750.305,0.0011254,6210.345372443879,7302.471124409529,7.221153212306932,-5620.695,-5272.633
34122,1754683673,14.63061477,0.0085513,74.0392,0.4258,290.2737,196.9002,743.693,622.923,0.00083906,5905.425121107198,7061.44299909775,7.456707423730272,-5748.077,-5627.307
34127,1754746225,14.29986244,0.0112322,74.179,269.7499,143.3612,339.1969,872.313,711.245,0.0011577,6042.016163618424,7169.913807189544,7.380161149306835,-5659.755,-5498.687
34128,1754716199,14.91669221,0.0040149,74.0009,190.8007,335.3385,38.8696,620.72,564.745,0.0026407,5792.168852426834,6970.867409445872,7.539218467121168,-5806.255,-5750.28
34129,1754697860,14.72859431,0.0038447,74.0337,224.9541,339.0595,20.9,678.985,624.928,0.0013839,5866.140256259119,7030.091452640972,7.508608200404882,-5746.072,-5692.015
34136,1754745494,14.78648515,0.0088246,74.0201,289.2237,82.8939,343.6772,695.471,571.72,0.00039743,5843.173622637425,7011.730365039809,7.481103703129232,-5799.28,-5675.529
34139,1754684889,14.56634544,0.0046893,74.0321,133.4854,238.6427,189.0089,737.274,670.853,0.0010945,5931.480916465208,7082.198657269648,7.474563512859438,-5700.147,-5633.726
34141,1754665404,14.4708854,0.0055517,74.0092,265.3208,18.6414,146.8935,774.667,695.685,0.00086953,5970.609096247836,7113.310590779092,7.451736806204281,-5675.3150000000005,-5596.333
34145,1754714069,14.41150539,0.0055666,86.2121,28.3428,145.9241,214.5553,794.407,714.996,0.0010657,5995.209914708293,7132.836606505904,7.441399732156323,-5656.004,-5576.593
34146,1754719330,14.47775563,0.0025841,86.2807,45.1394,285.1143,252.5564,751.301,714.549,0.00065196,5967.775821617456,7111.060060287382,7.475068811444206,-5656.451,-5619.699
34159,1754692832,14.38039043,0.0028205,86.3491,101.8805,344.7159,15.3184,785.134,744.84,0.00030239,6008.181795937511,7143.1218148642465,7.45647783588127,-5626.16,-5585.866
34163,1754699173,2.49232825,0.6649403,25.9289,141.7825,138.1513,354.8833,31880.577,1321.212,0.0,34666.38072252321,22979.02942325955,1.869418149743212,-5049.7880000000005,25509.577
34166,1754336276,2.31502852,0.7184818,25.5307,279.7034,144.439,296.9912,35102.228,417.094,0.00017297,37321.354468669786,24137.795907138297,1.645758438941502,-5953.906,28731.228000000003
34168,1754176830,2.63593361,0.6641342,27.869,67.9159,170.0245,356.0356,30460.247,1056.814,0.0,32777.76028661056,22136.665171957902,1.9074442038475394,-5314.186,24089.247
34174,1754532148,14.40778043,0.00127091,65.0034,338.4032,259.6716,278.8385,764.998,746.864,0.00038482853,5996.759904814846,7134.065960161208,7.472788874599794,-5624.136,-5606.002
34178,1754637317,2.24531102,0.7038391,3.7107,66.5694,356.8254,309.4308,35595.774,917.76,-0.026332,38480.19237887141,24634.901836477085,1.6780009770838,-5453.24,29224.773999999998
34179,1754394678,2.24187647,0.6995867,3.4833,113.4905,255.2451,305.1882,35533.768,1030.074,0.0,38539.14395203051,24660.055828161592,1.6912421009624252,-5340.9259999999995,29162.767999999996
34180,1754660784,2.2246753,0.6944448,5.1381,355.2795,108.6698,290.6425,35622.08,1195.664,0.0,38837.12827665233,24787.00680513974,1.703842029024805,-5175.336,29251.08
34184,1754350449,3.3324797,0.6476318,6.897,245.0757,354.8846,0.9126,24816.77,293.315,0.0012821,25926.63955312316,18933.177201652165,2.1232795949113132,-6077.685,18445.77
34189,1753422131,2.91558283,0.6530763,3.4825,83.502,284.9297,309.2276,27836.44,802.324,-0.0052857,29633.86912249034,20697.517191838953,2.0115982783548363,-5568.676,21465.44
34192,1754729379,3.17183,0.6477014,8.3138,334.5847,77.4979,343.5178,25862.76,515.36,-0.0016518,27239.795323204587,19567.194997815528,2.088302883604301,-5855.64,19491.76
34194,1754635011,4.17041018,0.587043,10.0045,34.1719,143.6954,276.1582,19496.329,354.538,0.009751,20717.38660488307,16303.568028820708,2.5239194852501923,-6016.4619999999995,13125.329000000002
34195,1753710650,2.94758773,0.6563045,5.3902,174.7434,143.0912,347.0464,27654.653,683.922,0.0024217,29312.104647687618,20547.42235422896,2.007575371584022,-5687.0779999999995,21283.653
34197,1754701118,4.21929317,0.574981,13.2226,339.0709,331.6953,6.4443,19100.962,497.567,0.0034942,20477.363510628013,16177.399341719685,2.580281377576028,-5873.433,12729.962
34198,1754640752,3.04431307,0.6521265,9.0677,339.7698,53.2577,317.1504,26845.891,617.551,-0.0017782,28380.786736891027,20109.856265838273,2.044190864654463,-5753.449,20474.891
34199,1754581508,2.90790851,0.64605911,6.854,359.3752,112.3155,325.5799,27751.117,960.446,0.0,29712.076464193848,20733.916683175918,2.0343576533752525,-5410.554,21380.117
34221,1754695021,15.10879724,0.0043617,98.489,125.2437,106.7171,253.8849,563.664,503.371,0.000153,5718.522700884429,6911.65278382567,7.568886866919604,-5867.629,-5807.336
34223,1754727327,14.04716662,0.0130019,99.1,267.5169,144.2632,216.7323,971.847,783.173,0.00055819,6150.706568610489,7255.644884929712,7.3233712390169154,-5587.827,-5399.153
34226,1754440499,5.57454765,0.4909347,51.6525,171.8143,17.5213,354.6933,13653.699,461.542,0.0071346,15499.015422354492,13435.755330997337,3.1849237328514755,-5909.458,7282.6990000000005
34239,1754259116,11.1606733,0.1648688,50.4023,64.2946,112.2871,266.0646,3474.489,685.522,0.09247,7741.468429149342,8458.140811249705,5.817639912930263,-5685.478,-2896.511
34241,1754330608,5.41004433,0.4938465,51.8361,348.9807,214.6684,337.1458,14097.652,559.587,0.0056363,15970.294276682942,13706.754223774391,3.1411493827907115,-5811.4130000000005,7726.652
34247,1754312080,5.62067551,0.48541054,52.1298,294.5176,161.6739,224.9627,13470.135,497.884,0.014434804,15371.81782621712,13362.144551192594,3.216927663740675,-5873.116,7099.135
34250,1754687524,5.31913439,0.5042116,51.7267,48.5424,191.8438,149.5514,14473.981,494.726,0.002707,16243.244420075649,13862.48851257789,3.0806448232055117,-5876.274,8102.981
34252,1754534429,5.25187515,0.5080966,51.6773,42.8493,212.5032,102.4706,14705.949,498.966,0.00041417,16451.266934630006,13980.592559604489,3.0516175561546155,-5872.034,8334.949
34259,1754654944,5.08109256,0.473646,51.0089,307.1544,272.3821,36.3463,14683.412,1144.587,0.0,17004.21690409041,14292.134801879452,3.1582183976776403,-5226.4130000000005,8312.412
